CCSDS_OMM_VERS = 2.0
CREATION_DATE  = 
ORIGINATOR     = 

OBJECT_NAME    = SL-16 R/B
OBJECT_ID      = 1993-016B
CENTER_NAME    = EARTH
REF_FRAME      = TEME
TIME_SYSTEM    = UTC
MEAN_ELEMENT_THEORY = SGP/SGP4

EPOCH          = 2026-02-22T22:30:17.962560
MEAN_MOTION    = 14.15300158
ECCENTRICITY   = .00108733
INCLINATION    = 71.0044
RA_OF_ASC_NODE = 246.1667
ARG_OF_PERICENTER = 334.5130
MEAN_ANOMALY   = 25.5455

EPHEMERIS_TYPE = 0
CLASSIFICATION_TYPE = U
NORAD_CAT_ID   = 22566
ELEMENT_SET_NO = 999
REV_AT_EPOCH   = 70008
BSTAR          = .4567151E-4
MEAN_MOTION_DOT = .41E-6
MEAN_MOTION_DDOT = 0

CCSDS_OMM_VERS = 2.0
CREATION_DATE  = 
ORIGINATOR     = 

OBJECT_NAME    = COSMOS 2242
OBJECT_ID      = 1993-024A
CENTER_NAME    = EARTH
REF_FRAME      = TEME
TIME_SYSTEM    = UTC
MEAN_ELEMENT_THEORY = SGP/SGP4

EPOCH          = 2026-02-22T17:24:28.733184
MEAN_MOTION    = 14.96482557
ECCENTRICITY   = .0016445
INCLINATION    = 82.5169
RA_OF_ASC_NODE = 281.0320
ARG_OF_PERICENTER = 1.0937
MEAN_ANOMALY   = 359.0318

EPHEMERIS_TYPE = 0
CLASSIFICATION_TYPE = U
NORAD_CAT_ID   = 22626
ELEMENT_SET_NO = 999
REV_AT_EPOCH   = 77815
BSTAR          = .15438938E-3
MEAN_MOTION_DOT = .1783E-4
MEAN_MOTION_DDOT = 0

CCSDS_OMM_VERS = 2.0
CREATION_DATE  = 
ORIGINATOR     = 

OBJECT_NAME    = SL-16 R/B
OBJECT_ID      = 1993-059B
CENTER_NAME    = EARTH
REF_FRAME      = TEME
TIME_SYSTEM    = UTC
MEAN_ELEMENT_THEORY = SGP/SGP4

EPOCH          = 2026-02-22T15:42:58.104288
MEAN_MOTION    = 14.17228014
ECCENTRICITY   = .00191221
INCLINATION    = 70.9899
RA_OF_ASC_NODE = 42.8311
ARG_OF_PERICENTER = 237.2173
MEAN_ANOMALY   = 122.7109

EPHEMERIS_TYPE = 0
CLASSIFICATION_TYPE = U
NORAD_CAT_ID   = 22803
ELEMENT_SET_NO = 999
REV_AT_EPOCH   = 67740
BSTAR          = .98106361E-4
MEAN_MOTION_DOT = .15E-5
MEAN_MOTION_DDOT = 0

CCSDS_OMM_VERS = 2.0
CREATION_DATE  = 
ORIGINATOR     = 

OBJECT_NAME    = ARIANE 40 R/B
OBJECT_ID      = 1993-061H
CENTER_NAME    = EARTH
REF_FRAME      = TEME
TIME_SYSTEM    = UTC
MEAN_ELEMENT_THEORY = SGP/SGP4

EPOCH          = 2026-02-22T16:26:21.993792
MEAN_MOTION    = 14.32852227
ECCENTRICITY   = .00099843
INCLINATION    = 98.4950
RA_OF_ASC_NODE = 122.8666
ARG_OF_PERICENTER = 333.9382
MEAN_ANOMALY   = 26.1298

EPHEMERIS_TYPE = 0
CLASSIFICATION_TYPE = U
NORAD_CAT_ID   = 22830
ELEMENT_SET_NO = 999
REV_AT_EPOCH   = 69195
BSTAR          = .84334729E-4
MEAN_MOTION_DOT = .187E-5
MEAN_MOTION_DDOT = 0

CCSDS_OMM_VERS = 2.0
CREATION_DATE  = 
ORIGINATOR     = 

OBJECT_NAME    = COSMOS 2278
OBJECT_ID      = 1994-023A
CENTER_NAME    = EARTH
REF_FRAME      = TEME
TIME_SYSTEM    = UTC
MEAN_ELEMENT_THEORY = SGP/SGP4

EPOCH          = 2026-02-22T19:35:39.788736
MEAN_MOTION    = 14.14368093
ECCENTRICITY   = .00072699
INCLINATION    = 71.0520
RA_OF_ASC_NODE = 206.2127
ARG_OF_PERICENTER = 42.8146
MEAN_ANOMALY   = 317.3542

EPHEMERIS_TYPE = 0
CLASSIFICATION_TYPE = U
NORAD_CAT_ID   = 23087
ELEMENT_SET_NO = 999
REV_AT_EPOCH   = 64270
BSTAR          = .21745874E-3
MEAN_MOTION_DOT = .369E-5
MEAN_MOTION_DDOT = 0

CCSDS_OMM_VERS = 2.0
CREATION_DATE  = 
ORIGINATOR     = 

OBJECT_NAME    = SL-16 R/B
OBJECT_ID      = 1994-023B
CENTER_NAME    = EARTH
REF_FRAME      = TEME
TIME_SYSTEM    = UTC
MEAN_ELEMENT_THEORY = SGP/SGP4

EPOCH          = 2026-02-22T20:52:16.027680
MEAN_MOTION    = 14.15011658
ECCENTRICITY   = .00050881
INCLINATION    = 70.9991
RA_OF_ASC_NODE = 102.0132
ARG_OF_PERICENTER = 299.4455
MEAN_ANOMALY   = 60.6160

EPHEMERIS_TYPE = 0
CLASSIFICATION_TYPE = U
NORAD_CAT_ID   = 23088
ELEMENT_SET_NO = 999
REV_AT_EPOCH   = 64399
BSTAR          = .13067136E-3
MEAN_MOTION_DOT = .205E-5
MEAN_MOTION_DDOT = 0

CCSDS_OMM_VERS = 2.0
CREATION_DATE  = 
ORIGINATOR     = 

OBJECT_NAME    = SL-16 R/B
OBJECT_ID      = 1994-074B
CENTER_NAME    = EARTH
REF_FRAME      = TEME
TIME_SYSTEM    = UTC
MEAN_ELEMENT_THEORY = SGP/SGP4

EPOCH          = 2026-02-22T20:48:45.730080
MEAN_MOTION    = 14.79388834
ECCENTRICITY   = .00051187
INCLINATION    = 97.7130
RA_OF_ASC_NODE = 85.2839
ARG_OF_PERICENTER = 269.6857
MEAN_ANOMALY   = 265.5346

EPHEMERIS_TYPE = 0
CLASSIFICATION_TYPE = U
NORAD_CAT_ID   = 23343
ELEMENT_SET_NO = 999
REV_AT_EPOCH   = 68505
BSTAR          = .70616632E-4
MEAN_MOTION_DOT = .477E-5
MEAN_MOTION_DDOT = 0

CCSDS_OMM_VERS = 2.0
CREATION_DATE  = 
ORIGINATOR     = 

OBJECT_NAME    = SL-16 R/B
OBJECT_ID      = 1994-077B
CENTER_NAME    = EARTH
REF_FRAME      = TEME
TIME_SYSTEM    = UTC
MEAN_ELEMENT_THEORY = SGP/SGP4

EPOCH          = 2026-02-22T22:15:51.206400
MEAN_MOTION    = 14.15564061
ECCENTRICITY   = .00037936
INCLINATION    = 70.9842
RA_OF_ASC_NODE = 23.5430
ARG_OF_PERICENTER = 227.8828
MEAN_ANOMALY   = 132.1972

EPHEMERIS_TYPE = 0
CLASSIFICATION_TYPE = U
NORAD_CAT_ID   = 23405
ELEMENT_SET_NO = 999
REV_AT_EPOCH   = 61414
BSTAR          = .13553265E-4
MEAN_MOTION_DOT = -.21E-6
MEAN_MOTION_DDOT = 0

CCSDS_OMM_VERS = 2.0
CREATION_DATE  = 
ORIGINATOR     = 

OBJECT_NAME    = ARIANE 40+ R/B
OBJECT_ID      = 1995-021B
CENTER_NAME    = EARTH
REF_FRAME      = TEME
TIME_SYSTEM    = UTC
MEAN_ELEMENT_THEORY = SGP/SGP4

EPOCH          = 2026-02-22T23:11:33.376992
MEAN_MOTION    = 14.39760711
ECCENTRICITY   = .00069176
INCLINATION    = 98.4528
RA_OF_ASC_NODE = 125.6460
ARG_OF_PERICENTER = 176.8250
MEAN_ANOMALY   = 356.5378

EPHEMERIS_TYPE = 0
CLASSIFICATION_TYPE = U
NORAD_CAT_ID   = 23561
ELEMENT_SET_NO = 999
REV_AT_EPOCH   = 61712
BSTAR          = .10457716E-3
MEAN_MOTION_DOT = .284E-5
MEAN_MOTION_DDOT = 0

CCSDS_OMM_VERS = 2.0
CREATION_DATE  = 
ORIGINATOR     = 

OBJECT_NAME    = SL-16 R/B
OBJECT_ID      = 1995-058B
CENTER_NAME    = EARTH
REF_FRAME      = TEME
TIME_SYSTEM    = UTC
MEAN_ELEMENT_THEORY = SGP/SGP4

EPOCH          = 2026-02-22T20:43:05.606976
MEAN_MOTION    = 14.15494778
ECCENTRICITY   = .00112941
INCLINATION    = 71.0201
RA_OF_ASC_NODE = 211.3806
ARG_OF_PERICENTER = 152.0074
MEAN_ANOMALY   = 208.1658

EPHEMERIS_TYPE = 0
CLASSIFICATION_TYPE = U
NORAD_CAT_ID   = 23705
ELEMENT_SET_NO = 999
REV_AT_EPOCH   = 56575
BSTAR          = -.84908438E-4
MEAN_MOTION_DOT = -.214E-5
MEAN_MOTION_DDOT = 0

CCSDS_OMM_VERS = 2.0
CREATION_DATE  = 
ORIGINATOR     = 

OBJECT_NAME    = SL-16 R/B
OBJECT_ID      = 1996-051B
CENTER_NAME    = EARTH
REF_FRAME      = TEME
TIME_SYSTEM    = UTC
MEAN_ELEMENT_THEORY = SGP/SGP4

EPOCH          = 2026-02-22T17:26:48.328800
MEAN_MOTION    = 14.12411359
ECCENTRICITY   = .00164135
INCLINATION    = 70.7581
RA_OF_ASC_NODE = 206.9076
ARG_OF_PERICENTER = 169.6125
MEAN_ANOMALY   = 190.5338

EPHEMERIS_TYPE = 0
CLASSIFICATION_TYPE = U
NORAD_CAT_ID   = 24298
ELEMENT_SET_NO = 999
REV_AT_EPOCH   = 51953
BSTAR          = .81138623E-4
MEAN_MOTION_DOT = .101E-5
MEAN_MOTION_DDOT = 0

CCSDS_OMM_VERS = 2.0
CREATION_DATE  = 
ORIGINATOR     = 

OBJECT_NAME    = ORBVIEW 2 (SEASTAR)
OBJECT_ID      = 1997-037A
CENTER_NAME    = EARTH
REF_FRAME      = TEME
TIME_SYSTEM    = UTC
MEAN_ELEMENT_THEORY = SGP/SGP4

EPOCH          = 2026-02-22T22:04:30.424512
MEAN_MOTION    = 14.35482332
ECCENTRICITY   = .00031929
INCLINATION    = 98.8539
RA_OF_ASC_NODE = 217.8422
ARG_OF_PERICENTER = 101.3805
MEAN_ANOMALY   = 258.7738

EPHEMERIS_TYPE = 0
CLASSIFICATION_TYPE = U
NORAD_CAT_ID   = 24883
ELEMENT_SET_NO = 999
REV_AT_EPOCH   = 50635
BSTAR          = .11959886E-3
MEAN_MOTION_DOT = .297E-5
MEAN_MOTION_DDOT = 0

