SL-16 R/B               
1 22566U 93016B   26053.93770790  .00000041  00000+0  45672-4 0  9990
2 22566  71.0044 246.1667 0010873 334.5130  25.5455 14.15300158700088
COSMOS 2242             
1 22626U 93024A   26053.72533256  .00001783  00000+0  15439-3 0  9998
2 22626  82.5169 281.0320 0016445   1.0937 359.0318 14.96482557778155
SL-16 R/B               
1 22803U 93059B   26053.65483917  .00000150  00000+0  98106-4 0  9993
2 22803  70.9899  42.8311 0019122 237.2173 122.7109 14.17228014677404
ARIANE 40 R/B           
1 22830U 93061H   26053.68497678  .00000187  00000+0  84335-4 0  9997
2 22830  98.4950 122.8666 0009984 333.9382  26.1298 14.32852227691958
COSMOS 2278             
1 23087U 94023A   26053.81643274  .00000369  00000+0  21746-3 0  9999
2 23087  71.0520 206.2127 0007269  42.8146 317.3542 14.14368093642709
SL-16 R/B               
1 23088U 94023B   26053.86962995  .00000205  00000+0  13067-3 0  9995
2 23088  70.9991 102.0132 0005088 299.4455  60.6160 14.15011658643998
SL-16 R/B               
1 23343U 94074B   26053.86719595  .00000477  00000+0  70617-4 0  9997
2 23343  97.7130  85.2839 0005118 269.6857 265.5346 14.79388834685057
SL-16 R/B               
1 23405U 94077B   26053.92767600 -.00000021  00000+0  13553-4 0  9998
2 23405  70.9842  23.5430 0003793 227.8828 132.1972 14.15564061614146
ARIANE 40+ R/B          
1 23561U 95021B   26053.96635853  .00000284  00000+0  10458-3 0  9999
2 23561  98.4528 125.6460 0006917 176.8250 356.5378 14.39760711617124
SL-16 R/B               
1 23705U 95058B   26053.86325934 -.00000214  00000+0 -84908-4 0  9991
2 23705  71.0201 211.3806 0011294 152.0074 208.1658 14.15494778565755
SL-16 R/B               
1 24298U 96051B   26053.72694825  .00000101  00000+0  81139-4 0  9992
2 24298  70.7581 206.9076 0016413 169.6125 190.5338 14.12411359519533
ORBVIEW 2 (SEASTAR)     
1 24883U 97037A   26053.91979658  .00000297  00000+0  11960-3 0  9998
2 24883  98.8539 217.8422 0003192 101.3805 258.7738 14.35482332506352
